[{"OBJECT_NAME":"ONEWEB-0720","OBJECT_ID":"2023-029AR","EPOCH":"2026-02-09T19:51:02.952000","MEAN_MOTION":13.19723585,"ECCENTRICITY":0.00014792,"INCLINATION":87.9244,"RA_OF_ASC_NODE":330.3359,"ARG_OF_PERICENTER":84.3984,"MEAN_ANOMALY":275.7317,"EPHEMERIS_TYPE":0,"CLASSIFICATION_TYPE":"U","NORAD_CAT_ID":55835,"ELEMENT_SET_NO":999,"REV_AT_EPOCH":14204,"BSTAR":0.00014838039,"MEAN_MOTION_DOT":7.2e-7,"MEAN_MOTION_DDOT":0},{"OBJECT_NAME":"ONEWEB-0537","OBJECT_ID":"2023-043A","EPOCH":"2026-02-10T01:14:25.323072","MEAN_MOTION":13.16595402,"ECCENTRICITY":0.0001732,"INCLINATION":87.9006,"RA_OF_ASC_NODE":254.0768,"ARG_OF_PERICENTER":85.5639,"MEAN_ANOMALY":274.569,"EPHEMERIS_TYPE":0,"CLASSIFICATION_TYPE":"U","NORAD_CAT_ID":56046,"ELEMENT_SET_NO":999,"REV_AT_EPOCH":14223,"BSTAR":0.00018352,"MEAN_MOTION_DOT":8.3e-7,"MEAN_MOTION_DDOT":0},{"OBJECT_NAME":"ONEWEB-0538","OBJECT_ID":"2023-043B","EPOCH":"2026-02-10T02:54:44.196768","MEAN_MOTION":13.1659492,"ECCENTRICITY":0.0001581,"INCLINATION":87.9002,"RA_OF_ASC_NODE":254.0663,"ARG_OF_PERICENTER":95.4071,"MEAN_ANOMALY":264.724,"EPHEMERIS_TYPE":0,"CLASSIFICATION_TYPE":"U","NORAD_CAT_ID":56047,"ELEMENT_SET_NO":999,"REV_AT_EPOCH":14225,"BSTAR":0.00011208,"MEAN_MOTION_DOT":5.6e-7,"MEAN_MOTION_DDOT":0},{"OBJECT_NAME":"ONEWEB-0546","OBJECT_ID":"2023-043C","EPOCH":"2026-02-10T00:47:03.546816","MEAN_MOTION":13.16593619,"ECCENTRICITY":0.000218,"INCLINATION":87.9005,"RA_OF_ASC_NODE":254.0802,"ARG_OF_PERICENTER":85.1509,"MEAN_ANOMALY":274.9871,"EPHEMERIS_TYPE":0,"CLASSIFICATION_TYPE":"U","NORAD_CAT_ID":56048,"ELEMENT_SET_NO":999,"REV_AT_EPOCH":14223,"BSTAR":0.00031403,"MEAN_MOTION_DOT":1.33e-6,"MEAN_MOTION_DDOT":0},{"OBJECT_NAME":"ONEWEB-0547","OBJECT_ID":"2023-043D","EPOCH":"2026-02-10T03:42:39.993120","MEAN_MOTION":13.21827092,"ECCENTRICITY":0.0001478,"INCLINATION":87.9186,"RA_OF_ASC_NODE":269.3128,"ARG_OF_PERICENTER":88.4315,"MEAN_ANOMALY":271.6988,"EPHEMERIS_TYPE":0,"CLASSIFICATION_TYPE":"U","NORAD_CAT_ID":56049,"ELEMENT_SET_NO":999,"REV_AT_EPOCH":14144,"BSTAR":-7.4603e-5,"MEAN_MOTION_DOT":-1.8e-7,"MEAN_MOTION_DDOT":0},{"OBJECT_NAME":"ONEWEB-0548","OBJECT_ID":"2023-043E","EPOCH":"2026-02-10T03:11:49.416576","MEAN_MOTION":13.16595683,"ECCENTRICITY":0.0001374,"INCLINATION":87.9004,"RA_OF_ASC_NODE":254.061,"ARG_OF_PERICENTER":68.5161,"MEAN_ANOMALY":291.6117,"EPHEMERIS_TYPE":0,"CLASSIFICATION_TYPE":"U","NORAD_CAT_ID":56050,"ELEMENT_SET_NO":999,"REV_AT_EPOCH":14224,"BSTAR":0.00011863,"MEAN_MOTION_DOT":5.8e-7,"MEAN_MOTION_DDOT":0},{"OBJECT_NAME":"ONEWEB-0549","OBJECT_ID":"2023-043F","EPOCH":"2026-02-10T03:31:59.532384","MEAN_MOTION":13.21824034,"ECCENTRICITY":0.0001546,"INCLINATION":87.9182,"RA_OF_ASC_NODE":269.3265,"ARG_OF_PERICENTER":96.8735,"MEAN_ANOMALY":263.2575,"EPHEMERIS_TYPE":0,"CLASSIFICATION_TYPE":"U","NORAD_CAT_ID":56051,"ELEMENT_SET_NO":999,"REV_AT_EPOCH":14144,"BSTAR":-0.00021348,"MEAN_MOTION_DOT":-7.5e-7,"MEAN_MOTION_DDOT":0},{"OBJECT_NAME":"ONEWEB-0550","OBJECT_ID":"2023-043G","EPOCH":"2026-02-10T03:13:02.669952","MEAN_MOTION":13.2182658,"ECCENTRICITY":0.0001548,"INCLINATION":87.9184,"RA_OF_ASC_NODE":269.3244,"ARG_OF_PERICENTER":80.1342,"MEAN_ANOMALY":279.9966,"EPHEMERIS_TYPE":0,"CLASSIFICATION_TYPE":"U","NORAD_CAT_ID":56052,"ELEMENT_SET_NO":999,"REV_AT_EPOCH":14144,"BSTAR":8.7874e-5,"MEAN_MOTION_DOT":4.9e-7,"MEAN_MOTION_DDOT":0},{"OBJECT_NAME":"ONEWEB-0551","OBJECT_ID":"2023-043H","EPOCH":"2026-02-10T03:20:51.553248","MEAN_MOTION":13.15550945,"ECCENTRICITY":0.0001455,"INCLINATION":87.8976,"RA_OF_ASC_NODE":284.5971,"ARG_OF_PERICENTER":94.3794,"MEAN_ANOMALY":265.7502,"EPHEMERIS_TYPE":0,"CLASSIFICATION_TYPE":"U","NORAD_CAT_ID":56053,"ELEMENT_SET_NO":999,"REV_AT_EPOCH":13969,"BSTAR":0.0001405,"MEAN_MOTION_DOT":6.6e-7,"MEAN_MOTION_DDOT":0},{"OBJECT_NAME":"ONEWEB-0552","OBJECT_ID":"2023-043J","EPOCH":"2026-02-10T01:16:54.939360","MEAN_MOTION":13.21825507,"ECCENTRICITY":0.0001268,"INCLINATION":87.9184,"RA_OF_ASC_NODE":269.3491,"ARG_OF_PERICENTER":86.8705,"MEAN_ANOMALY":273.2574,"EPHEMERIS_TYPE":0,"CLASSIFICATION_TYPE":"U","NORAD_CAT_ID":56054,"ELEMENT_SET_NO":999,"REV_AT_EPOCH":14143,"BSTAR":-0.00058182,"MEAN_MOTION_DOT":-2.27e-6,"MEAN_MOTION_DDOT":0},{"OBJECT_NAME":"ONEWEB-0553","OBJECT_ID":"2023-043K","EPOCH":"2026-02-09T23:06:44.317152","MEAN_MOTION":13.16594773,"ECCENTRICITY":0.0001868,"INCLINATION":87.9003,"RA_OF_ASC_NODE":254.0976,"ARG_OF_PERICENTER":82.7114,"MEAN_ANOMALY":277.4229,"EPHEMERIS_TYPE":0,"CLASSIFICATION_TYPE":"U","NORAD_CAT_ID":56055,"ELEMENT_SET_NO":999,"REV_AT_EPOCH":14223,"BSTAR":0.00023733,"MEAN_MOTION_DOT":1.04e-6,"MEAN_MOTION_DDOT":0},{"OBJECT_NAME":"ONEWEB-0554","OBJECT_ID":"2023-043L","EPOCH":"2026-02-10T00:37:55.763904","MEAN_MOTION":13.16594218,"ECCENTRICITY":0.0001456,"INCLINATION":87.9,"RA_OF_ASC_NODE":254.0954,"ARG_OF_PERICENTER":79.2624,"MEAN_ANOMALY":280.8671,"EPHEMERIS_TYPE":0,"CLASSIFICATION_TYPE":"U","NORAD_CAT_ID":56056,"ELEMENT_SET_NO":999,"REV_AT_EPOCH":14222,"BSTAR":0.00024854,"MEAN_MOTION_DOT":1.08e-6,"MEAN_MOTION_DDOT":0},{"OBJECT_NAME":"ONEWEB-0555","OBJECT_ID":"2023-043M","EPOCH":"2026-02-10T03:22:05.865888","MEAN_MOTION":13.16595311,"ECCENTRICITY":0.0002043,"INCLINATION":87.9006,"RA_OF_ASC_NODE":254.0573,"ARG_OF_PERICENTER":82.5961,"MEAN_ANOMALY":277.5402,"EPHEMERIS_TYPE":0,"CLASSIFICATION_TYPE":"U","NORAD_CAT_ID":56057,"ELEMENT_SET_NO":999,"REV_AT_EPOCH":14224,"BSTAR":0.00019609,"MEAN_MOTION_DOT":8.8e-7,"MEAN_MOTION_DDOT":0},{"OBJECT_NAME":"ONEWEB-0557","OBJECT_ID":"2023-043N","EPOCH":"2026-02-10T00:03:44.627040","MEAN_MOTION":13.16594475,"ECCENTRICITY":0.0002223,"INCLINATION":87.9004,"RA_OF_ASC_NODE":254.0962,"ARG_OF_PERICENTER":53.2821,"MEAN_ANOMALY":306.8514,"EPHEMERIS_TYPE":0,"CLASSIFICATION_TYPE":"U","NORAD_CAT_ID":56058,"ELEMENT_SET_NO":999,"REV_AT_EPOCH":14222,"BSTAR":-0.00023934,"MEAN_MOTION_DOT":-7.9e-7,"MEAN_MOTION_DDOT":0},{"OBJECT_NAME":"ONEWEB-0558","OBJECT_ID":"2023-043P","EPOCH":"2026-02-10T02:56:26.439936","MEAN_MOTION":13.21826058,"ECCENTRICITY":0.0001574,"INCLINATION":87.9184,"RA_OF_ASC_NODE":269.3276,"ARG_OF_PERICENTER":106.2828,"MEAN_ANOMALY":253.8479,"EPHEMERIS_TYPE":0,"CLASSIFICATION_TYPE":"U","NORAD_CAT_ID":56059,"ELEMENT_SET_NO":999,"REV_AT_EPOCH":14145,"BSTAR":-0.00067451,"MEAN_MOTION_DOT":-2.66e-6,"MEAN_MOTION_DDOT":0},{"OBJECT_NAME":"ONEWEB-0559","OBJECT_ID":"2023-043Q","EPOCH":"2026-02-09T15:45:51.379488","MEAN_MOTION":13.21825639,"ECCENTRICITY":0.00013003,"INCLINATION":87.9182,"RA_OF_ASC_NODE":269.4145,"ARG_OF_PERICENTER":91.5084,"MEAN_ANOMALY":268.6199,"EPHEMERIS_TYPE":0,"CLASSIFICATION_TYPE":"U","NORAD_CAT_ID":56060,"ELEMENT_SET_NO":999,"REV_AT_EPOCH":14140,"BSTAR":9.4030478e-5,"MEAN_MOTION_DOT":5.2e-7,"MEAN_MOTION_DDOT":0},{"OBJECT_NAME":"ONEWEB-0566","OBJECT_ID":"2023-043R","EPOCH":"2026-02-10T02:30:23.197824","MEAN_MOTION":13.21824624,"ECCENTRICITY":0.0001382,"INCLINATION":87.9185,"RA_OF_ASC_NODE":269.3238,"ARG_OF_PERICENTER":94.8694,"MEAN_ANOMALY":265.2598,"EPHEMERIS_TYPE":0,"CLASSIFICATION_TYPE":"U","NORAD_CAT_ID":56061,"ELEMENT_SET_NO":999,"REV_AT_EPOCH":14144,"BSTAR":0.0001028,"MEAN_MOTION_DOT":5.5e-7,"MEAN_MOTION_DDOT":0}]
