ONEWEB-0720             
1 55835U 23029AR  26040.82711750  .00000072  00000+0  14838-3 0  9990
2 55835  87.9244 330.3359 0001479  84.3984 275.7317 13.19723585142042
ONEWEB-0537             
1 56046U 23043A   26041.05168198  .00000083  00000+0  18352-3 0  9996
2 56046  87.9006 254.0768 0001732  85.5639 274.5690 13.16595402142235
ONEWEB-0538             
1 56047U 23043B   26041.12134487  .00000056  00000+0  11208-3 0  9992
2 56047  87.9002 254.0663 0001581  95.4071 264.7240 13.16594920142256
ONEWEB-0546             
1 56048U 23043C   26041.03267994  .00000133  00000+0  31403-3 0  9998
2 56048  87.9005 254.0802 0002180  85.1509 274.9871 13.16593619142238
ONEWEB-0547             
1 56049U 23043D   26041.15462955 -.00000018  00000+0 -74603-4 0  9990
2 56049  87.9186 269.3128 0001478  88.4315 271.6988 13.21827092141445
ONEWEB-0548             
1 56050U 23043E   26041.13321084  .00000058  00000+0  11863-3 0  9997
2 56050  87.9004 254.0610 0001374  68.5161 291.6117 13.16595683142243
ONEWEB-0549             
1 56051U 23043F   26041.14721681 -.00000075  00000+0 -21348-3 0  9996
2 56051  87.9182 269.3265 0001546  96.8735 263.2575 13.21824034141443
ONEWEB-0550             
1 56052U 23043G   26041.13405868  .00000049  00000+0  87874-4 0  9998
2 56052  87.9184 269.3244 0001548  80.1342 279.9966 13.21826580141441
ONEWEB-0551             
1 56053U 23043H   26041.13948557  .00000066  00000+0  14050-3 0  9990
2 56053  87.8976 284.5971 0001455  94.3794 265.7502 13.15550945139696
ONEWEB-0552             
1 56054U 23043J   26041.05341365 -.00000227  00000+0 -58182-3 0  9991
2 56054  87.9184 269.3491 0001268  86.8705 273.2574 13.21825507141431
ONEWEB-0553             
1 56055U 23043K   26040.96301293  .00000104  00000+0  23733-3 0  9993
2 56055  87.9003 254.0976 0001868  82.7114 277.4229 13.16594773142230
ONEWEB-0554             
1 56056U 23043L   26041.02633986  .00000108  00000+0  24854-3 0  9998
2 56056  87.9000 254.0954 0001456  79.2624 280.8671 13.16594218142226
ONEWEB-0555             
1 56057U 23043M   26041.14034567  .00000088  00000+0  19609-3 0  9991
2 56057  87.9006 254.0573 0002043  82.5961 277.5402 13.16595311142246
ONEWEB-0557             
1 56058U 23043N   26041.00259985 -.00000079  00000+0 -23934-3 0  9998
2 56058  87.9004 254.0962 0002223  53.2821 306.8514 13.16594475142225
ONEWEB-0558             
1 56059U 23043P   26041.12252824 -.00000266  00000+0 -67451-3 0  9997
2 56059  87.9184 269.3276 0001574 106.2828 253.8479 13.21826058141452
ONEWEB-0559             
1 56060U 23043Q   26040.65684467  .00000052  00000+0  94030-4 0  9993
2 56060  87.9182 269.4145 0001300  91.5084 268.6199 13.21825639141407
ONEWEB-0566             
1 56061U 23043R   26041.10443516  .00000055  00000+0  10280-3 0  9990
2 56061  87.9185 269.3238 0001382  94.8694 265.2598 13.21824624141449
